FLOCK 4H-34             
1 66737U 25276BZ  26194.17758649  .00003973  00000+0  18324-3 0  9992
2 66737  97.4236 267.6194 0002346 175.2770 184.8488 15.20822299 33637
FLOCK 4H-35             
1 66738U 25276CA  26193.75873903  .00004548  00000+0  20860-3 0  9994
2 66738  97.4196 267.1453 0002306 156.8141 203.3199 15.20936393 33614
FLOCK 4H-36             
1 66739U 25276CB  26194.38911556  .00003656  00000+0  16946-3 0  9991
2 66739  97.4243 267.8208 0002273 189.4100 170.7093 15.20703793 34418
