{"fetched_at":"2026-07-13T18:16:33.418Z","source":"https://celestrak.org/NORAD/elements/gp.php?GROUP=planet&FORMAT=JSON","constellation":"superdove","records":[{"OBJECT_NAME":"FLOCK 4H-34","OBJECT_ID":"2025-276BZ","EPOCH":"2026-07-13T04:15:43.472736","CLASSIFICATION_TYPE":"U","MEAN_MOTION":15.20822299,"ECCENTRICITY":0.0002346,"INCLINATION":97.4236,"RA_OF_ASC_NODE":267.6194,"ARG_OF_PERICENTER":175.277,"MEAN_ANOMALY":184.8488,"EPHEMERIS_TYPE":0,"NORAD_CAT_ID":66737,"ELEMENT_SET_NO":999,"REV_AT_EPOCH":3363,"BSTAR":0.00018324,"MEAN_MOTION_DOT":0.00003973,"MEAN_MOTION_DDOT":0},{"OBJECT_NAME":"FLOCK 4H-35","OBJECT_ID":"2025-276CA","EPOCH":"2026-07-12T18:12:35.052192","CLASSIFICATION_TYPE":"U","MEAN_MOTION":15.20936393,"ECCENTRICITY":0.00023065,"INCLINATION":97.4196,"RA_OF_ASC_NODE":267.1453,"ARG_OF_PERICENTER":156.8141,"MEAN_ANOMALY":203.3199,"EPHEMERIS_TYPE":0,"NORAD_CAT_ID":66738,"ELEMENT_SET_NO":999,"REV_AT_EPOCH":3361,"BSTAR":0.00020860269,"MEAN_MOTION_DOT":0.00004548,"MEAN_MOTION_DDOT":0},{"OBJECT_NAME":"FLOCK 4H-36","OBJECT_ID":"2025-276CB","EPOCH":"2026-07-13T09:20:19.584384","CLASSIFICATION_TYPE":"U","MEAN_MOTION":15.20703793,"ECCENTRICITY":0.0002273,"INCLINATION":97.4243,"RA_OF_ASC_NODE":267.8208,"ARG_OF_PERICENTER":189.41,"MEAN_ANOMALY":170.7093,"EPHEMERIS_TYPE":0,"NORAD_CAT_ID":66739,"ELEMENT_SET_NO":999,"REV_AT_EPOCH":3441,"BSTAR":0.00016946,"MEAN_MOTION_DOT":0.00003656,"MEAN_MOTION_DDOT":0}]}
